<?xml version="1.0" encoding="UTF-8"?>
<ndm xmlns:xsi="http://www.w3.org/2001/XMLSchema-instance" xsi:noNamespaceSchemaLocation="https://sanaregistry.org/r/ndmxml_unqualified/ndmxml-2.0.0-master-2.0.xsd">
<omm id="CCSDS_OMM_VERS" version="2.0">
<header><CREATION_DATE/><ORIGINATOR/></header><body><segment><metadata><OBJECT_NAME>ONEWEB-0570</OBJECT_NAME><OBJECT_ID>2023-004K</OBJECT_ID><CENTER_NAME>EARTH</CENTER_NAME><REF_FRAME>TEME</REF_FRAME><TIME_SYSTEM>UTC</TIME_SYSTEM><MEAN_ELEMENT_THEORY>SGP4</MEAN_ELEMENT_THEORY></metadata><data><meanElements><EPOCH>2024-01-10T11:03:25.102944</EPOCH><MEAN_MOTION>13.18689131</MEAN_MOTION><ECCENTRICITY>.000147</ECCENTRICITY><INCLINATION>87.9234</INCLINATION><RA_OF_ASC_NODE>152.3471</RA_OF_ASC_NODE><ARG_OF_PERICENTER>69.4352</ARG_OF_PERICENTER><MEAN_ANOMALY>290.6938</MEAN_ANOMALY></meanElements><tleParameters><EPHEMERIS_TYPE>0</EPHEMERIS_TYPE><CLASSIFICATION_TYPE>U</CLASSIFICATION_TYPE><NORAD_CAT_ID>55149</NORAD_CAT_ID><ELEMENT_SET_NO>999</ELEMENT_SET_NO><REV_AT_EPOCH>5256</REV_AT_EPOCH><BSTAR>.7521E-4</BSTAR><MEAN_MOTION_DOT>.43E-6</MEAN_MOTION_DOT><MEAN_MOTION_DDOT>0</MEAN_MOTION_DDOT></tleParameters></data></segment></body></omm>
<omm id="CCSDS_OMM_VERS" version="2.0">
<header><CREATION_DATE/><ORIGINATOR/></header><body><segment><metadata><OBJECT_NAME>ONEWEB-0571</OBJECT_NAME><OBJECT_ID>2023-004L</OBJECT_ID><CENTER_NAME>EARTH</CENTER_NAME><REF_FRAME>TEME</REF_FRAME><TIME_SYSTEM>UTC</TIME_SYSTEM><MEAN_ELEMENT_THEORY>SGP4</MEAN_ELEMENT_THEORY></metadata><data><meanElements><EPOCH>2024-01-10T10:54:18.412992</EPOCH><MEAN_MOTION>13.18682591</MEAN_MOTION><ECCENTRICITY>.0002479</ECCENTRICITY><INCLINATION>87.9235</INCLINATION><RA_OF_ASC_NODE>152.3520</RA_OF_ASC_NODE><ARG_OF_PERICENTER>83.2477</ARG_OF_PERICENTER><MEAN_ANOMALY>276.8938</MEAN_ANOMALY></meanElements><tleParameters><EPHEMERIS_TYPE>0</EPHEMERIS_TYPE><CLASSIFICATION_TYPE>U</CLASSIFICATION_TYPE><NORAD_CAT_ID>55150</NORAD_CAT_ID><ELEMENT_SET_NO>999</ELEMENT_SET_NO><REV_AT_EPOCH>5257</REV_AT_EPOCH><BSTAR>.21198E-3</BSTAR><MEAN_MOTION_DOT>.96E-6</MEAN_MOTION_DOT><MEAN_MOTION_DDOT>0</MEAN_MOTION_DDOT></tleParameters></data></segment></body></omm>
<omm id="CCSDS_OMM_VERS" version="2.0">
<header><CREATION_DATE/><ORIGINATOR/></header><body><segment><metadata><OBJECT_NAME>ONEWEB-0572</OBJECT_NAME><OBJECT_ID>2023-004M</OBJECT_ID><CENTER_NAME>EARTH</CENTER_NAME><REF_FRAME>TEME</REF_FRAME><TIME_SYSTEM>UTC</TIME_SYSTEM><MEAN_ELEMENT_THEORY>SGP4</MEAN_ELEMENT_THEORY></metadata><data><meanElements><EPOCH>2024-01-10T11:01:22.258560</EPOCH><MEAN_MOTION>13.17651083</MEAN_MOTION><ECCENTRICITY>.0001549</ECCENTRICITY><INCLINATION>87.9209</INCLINATION><RA_OF_ASC_NODE>182.5797</RA_OF_ASC_NODE><ARG_OF_PERICENTER>84.3369</ARG_OF_PERICENTER><MEAN_ANOMALY>275.7939</MEAN_ANOMALY></meanElements><tleParameters><EPHEMERIS_TYPE>0</EPHEMERIS_TYPE><CLASSIFICATION_TYPE>U</CLASSIFICATION_TYPE><NORAD_CAT_ID>55151</NORAD_CAT_ID><ELEMENT_SET_NO>999</ELEMENT_SET_NO><REV_AT_EPOCH>5044</REV_AT_EPOCH><BSTAR>.1525E-3</BSTAR><MEAN_MOTION_DOT>.72E-6</MEAN_MOTION_DOT><MEAN_MOTION_DDOT>0</MEAN_MOTION_DDOT></tleParameters></data></segment></body></omm>
<omm id="CCSDS_OMM_VERS" version="2.0">
<header><CREATION_DATE/><ORIGINATOR/></header><body><segment><metadata><OBJECT_NAME>ONEWEB-0573</OBJECT_NAME><OBJECT_ID>2023-004N</OBJECT_ID><CENTER_NAME>EARTH</CENTER_NAME><REF_FRAME>TEME</REF_FRAME><TIME_SYSTEM>UTC</TIME_SYSTEM><MEAN_ELEMENT_THEORY>SGP4</MEAN_ELEMENT_THEORY></metadata><data><meanElements><EPOCH>2024-01-10T10:45:12.547296</EPOCH><MEAN_MOTION>13.18694779</MEAN_MOTION><ECCENTRICITY>.0002484</ECCENTRICITY><INCLINATION>87.9203</INCLINATION><RA_OF_ASC_NODE>152.3828</RA_OF_ASC_NODE><ARG_OF_PERICENTER>71.4894</ARG_OF_PERICENTER><MEAN_ANOMALY>288.6508</MEAN_ANOMALY></meanElements><tleParameters><EPHEMERIS_TYPE>0</EPHEMERIS_TYPE><CLASSIFICATION_TYPE>U</CLASSIFICATION_TYPE><NORAD_CAT_ID>55152</NORAD_CAT_ID><ELEMENT_SET_NO>999</ELEMENT_SET_NO><REV_AT_EPOCH>5256</REV_AT_EPOCH><BSTAR>-.34573E-2</BSTAR><MEAN_MOTION_DOT>-.135E-4</MEAN_MOTION_DOT><MEAN_MOTION_DDOT>0</MEAN_MOTION_DDOT></tleParameters></data></segment></body></omm>
<omm id="CCSDS_OMM_VERS" version="2.0">
<header><CREATION_DATE/><ORIGINATOR/></header><body><segment><metadata><OBJECT_NAME>ONEWEB-0588</OBJECT_NAME><OBJECT_ID>2023-004P</OBJECT_ID><CENTER_NAME>EARTH</CENTER_NAME><REF_FRAME>TEME</REF_FRAME><TIME_SYSTEM>UTC</TIME_SYSTEM><MEAN_ELEMENT_THEORY>SGP4</MEAN_ELEMENT_THEORY></metadata><data><meanElements><EPOCH>2024-01-10T10:36:08.432064</EPOCH><MEAN_MOTION>13.18686780</MEAN_MOTION><ECCENTRICITY>.0001393</ECCENTRICITY><INCLINATION>87.9234</INCLINATION><RA_OF_ASC_NODE>152.3421</RA_OF_ASC_NODE><ARG_OF_PERICENTER>72.5107</ARG_OF_PERICENTER><MEAN_ANOMALY>287.6178</MEAN_ANOMALY></meanElements><tleParameters><EPHEMERIS_TYPE>0</EPHEMERIS_TYPE><CLASSIFICATION_TYPE>U</CLASSIFICATION_TYPE><NORAD_CAT_ID>55153</NORAD_CAT_ID><ELEMENT_SET_NO>999</ELEMENT_SET_NO><REV_AT_EPOCH>5256</REV_AT_EPOCH><BSTAR>.27879E-3</BSTAR><MEAN_MOTION_DOT>.123E-5</MEAN_MOTION_DOT><MEAN_MOTION_DDOT>0</MEAN_MOTION_DDOT></tleParameters></data></segment></body></omm>
<omm id="CCSDS_OMM_VERS" version="2.0">
<header><CREATION_DATE/><ORIGINATOR/></header><body><segment><metadata><OBJECT_NAME>ONEWEB-0598</OBJECT_NAME><OBJECT_ID>2023-004Q</OBJECT_ID><CENTER_NAME>EARTH</CENTER_NAME><REF_FRAME>TEME</REF_FRAME><TIME_SYSTEM>UTC</TIME_SYSTEM><MEAN_ELEMENT_THEORY>SGP4</MEAN_ELEMENT_THEORY></metadata><data><meanElements><EPOCH>2024-01-10T10:54:29.046240</EPOCH><MEAN_MOTION>13.11414850</MEAN_MOTION><ECCENTRICITY>.0002228</ECCENTRICITY><INCLINATION>87.8961</INCLINATION><RA_OF_ASC_NODE>197.7259</RA_OF_ASC_NODE><ARG_OF_PERICENTER>84.1426</ARG_OF_PERICENTER><MEAN_ANOMALY>275.9956</MEAN_ANOMALY></meanElements><tleParameters><EPHEMERIS_TYPE>0</EPHEMERIS_TYPE><CLASSIFICATION_TYPE>U</CLASSIFICATION_TYPE><NORAD_CAT_ID>55154</NORAD_CAT_ID><ELEMENT_SET_NO>999</ELEMENT_SET_NO><REV_AT_EPOCH>4941</REV_AT_EPOCH><BSTAR>-.77782E-3</BSTAR><MEAN_MOTION_DOT>-.263E-5</MEAN_MOTION_DOT><MEAN_MOTION_DDOT>0</MEAN_MOTION_DDOT></tleParameters></data></segment></body></omm>
<omm id="CCSDS_OMM_VERS" version="2.0">
<header><CREATION_DATE/><ORIGINATOR/></header><body><segment><metadata><OBJECT_NAME>ONEWEB-0599</OBJECT_NAME><OBJECT_ID>2023-004R</OBJECT_ID><CENTER_NAME>EARTH</CENTER_NAME><REF_FRAME>TEME</REF_FRAME><TIME_SYSTEM>UTC</TIME_SYSTEM><MEAN_ELEMENT_THEORY>SGP4</MEAN_ELEMENT_THEORY></metadata><data><meanElements><EPOCH>2024-01-10T10:04:25.060800</EPOCH><MEAN_MOTION>13.17648613</MEAN_MOTION><ECCENTRICITY>.0001698</ECCENTRICITY><INCLINATION>87.9214</INCLINATION><RA_OF_ASC_NODE>182.5619</RA_OF_ASC_NODE><ARG_OF_PERICENTER>94.8396</ARG_OF_PERICENTER><MEAN_ANOMALY>265.2929</MEAN_ANOMALY></meanElements><tleParameters><EPHEMERIS_TYPE>0</EPHEMERIS_TYPE><CLASSIFICATION_TYPE>U</CLASSIFICATION_TYPE><NORAD_CAT_ID>55155</NORAD_CAT_ID><ELEMENT_SET_NO>999</ELEMENT_SET_NO><REV_AT_EPOCH>5044</REV_AT_EPOCH><BSTAR>-.7067E-3</BSTAR><MEAN_MOTION_DOT>-.262E-5</MEAN_MOTION_DOT><MEAN_MOTION_DDOT>0</MEAN_MOTION_DDOT></tleParameters></data></segment></body></omm>
<omm id="CCSDS_OMM_VERS" version="2.0">
<header><CREATION_DATE/><ORIGINATOR/></header><body><segment><metadata><OBJECT_NAME>ONEWEB-0614</OBJECT_NAME><OBJECT_ID>2023-004S</OBJECT_ID><CENTER_NAME>EARTH</CENTER_NAME><REF_FRAME>TEME</REF_FRAME><TIME_SYSTEM>UTC</TIME_SYSTEM><MEAN_ELEMENT_THEORY>SGP4</MEAN_ELEMENT_THEORY></metadata><data><meanElements><EPOCH>2024-01-10T10:47:30.439968</EPOCH><MEAN_MOTION>13.11414588</MEAN_MOTION><ECCENTRICITY>.0001051</ECCENTRICITY><INCLINATION>87.8959</INCLINATION><RA_OF_ASC_NODE>197.7285</RA_OF_ASC_NODE><ARG_OF_PERICENTER>81.1546</ARG_OF_PERICENTER><MEAN_ANOMALY>278.9700</MEAN_ANOMALY></meanElements><tleParameters><EPHEMERIS_TYPE>0</EPHEMERIS_TYPE><CLASSIFICATION_TYPE>U</CLASSIFICATION_TYPE><NORAD_CAT_ID>55156</NORAD_CAT_ID><ELEMENT_SET_NO>999</ELEMENT_SET_NO><REV_AT_EPOCH>4935</REV_AT_EPOCH><BSTAR>-.18599E-3</BSTAR><MEAN_MOTION_DOT>-.53E-6</MEAN_MOTION_DOT><MEAN_MOTION_DDOT>0</MEAN_MOTION_DDOT></tleParameters></data></segment></body></omm>

</ndm>
