ONEWEB-0570             
1 55149U 23004K   24010.46070721  .00000043  00000+0  75210-4 0  9992
2 55149  87.9234 152.3471 0001470  69.4352 290.6938 13.18689131 52569
ONEWEB-0571             
1 55150U 23004L   24010.45437978  .00000096  00000+0  21198-3 0  9997
2 55150  87.9235 152.3520 0002479  83.2477 276.8938 13.18682591 52579
ONEWEB-0572             
1 55151U 23004M   24010.45928540  .00000072  00000+0  15250-3 0  9994
2 55151  87.9209 182.5797 0001549  84.3369 275.7939 13.17651083 50445
ONEWEB-0573             
1 55152U 23004N   24010.44806189 -.00001350  00000+0 -34573-2 0  9998
2 55152  87.9203 152.3828 0002484  71.4894 288.6508 13.18694779 52569
ONEWEB-0588             
1 55153U 23004P   24010.44176426  .00000123  00000+0  27879-3 0  9990
2 55153  87.9234 152.3421 0001393  72.5107 287.6178 13.18686780 52565
ONEWEB-0598             
1 55154U 23004Q   24010.45450285 -.00000263  00000+0 -77782-3 0  9995
2 55154  87.8961 197.7259 0002228  84.1426 275.9956 13.11414850 49419
ONEWEB-0599             
1 55155U 23004R   24010.41973450 -.00000262  00000+0 -70670-3 0  9994
2 55155  87.9214 182.5619 0001698  94.8396 265.2929 13.17648613 50447
ONEWEB-0614             
1 55156U 23004S   24010.44965787 -.00000053  00000+0 -18599-3 0  9992
2 55156  87.8959 197.7285 0001051  81.1546 278.9700 13.11414588 49351
